FORMOSAT 7-2            
1 44351U 19036N   26068.46036694  .00003823  00000+0  30629-3 0  9994
2 44351  23.9982 100.9036 0000971  99.0828 260.9782 14.96019264368636
STARLINK-5283           
1 55396U 23014F   26068.38792159 -.00000464  00000+0 -31100-4 0  9998
2 55396  69.9998  65.0837 0003143 270.7357  89.3442 14.98325734172018
