[{"OBJECT_NAME":"FORMOSAT 7-2","OBJECT_ID":"2019-036N","EPOCH":"2026-03-09T11:02:55.703616","MEAN_MOTION":14.96019264,"ECCENTRICITY":9.711e-5,"INCLINATION":23.9982,"RA_OF_ASC_NODE":100.9036,"ARG_OF_PERICENTER":99.0828,"MEAN_ANOMALY":260.9782,"EPHEMERIS_TYPE":0,"CLASSIFICATION_TYPE":"U","NORAD_CAT_ID":44351,"ELEMENT_SET_NO":999,"REV_AT_EPOCH":36863,"BSTAR":0.00030629276,"MEAN_MOTION_DOT":3.823e-5,"MEAN_MOTION_DDOT":0},{"OBJECT_NAME":"STARLINK-5283","OBJECT_ID":"2023-014F","EPOCH":"2026-03-09T09:18:36.425376","MEAN_MOTION":14.98325734,"ECCENTRICITY":0.0003143,"INCLINATION":69.9998,"RA_OF_ASC_NODE":65.0837,"ARG_OF_PERICENTER":270.7357,"MEAN_ANOMALY":89.3442,"EPHEMERIS_TYPE":0,"CLASSIFICATION_TYPE":"U","NORAD_CAT_ID":55396,"ELEMENT_SET_NO":999,"REV_AT_EPOCH":17201,"BSTAR":-3.1099883e-5,"MEAN_MOTION_DOT":-4.64e-6,"MEAN_MOTION_DDOT":0}]
